[{"OBJECT_NAME":"NANOFF A","OBJECT_ID":"2023-185T","EPOCH":"2026-03-09T23:34:34.415328","MEAN_MOTION":15.11542977,"ECCENTRICITY":0.00086783,"INCLINATION":97.5359,"RA_OF_ASC_NODE":137.8345,"ARG_OF_PERICENTER":292.8968,"MEAN_ANOMALY":67.1346,"EPHEMERIS_TYPE":0,"CLASSIFICATION_TYPE":"U","NORAD_CAT_ID":58810,"ELEMENT_SET_NO":999,"REV_AT_EPOCH":11805,"BSTAR":0.00027314844,"MEAN_MOTION_DOT":4.57e-5,"MEAN_MOTION_DDOT":0},{"OBJECT_NAME":"COSMOS 2535 DEB","OBJECT_ID":"2019-039J","EPOCH":"2026-03-09T22:02:27.714912","MEAN_MOTION":15.13627487,"ECCENTRICITY":0.00116202,"INCLINATION":97.5293,"RA_OF_ASC_NODE":109.4577,"ARG_OF_PERICENTER":13.0457,"MEAN_ANOMALY":347.1072,"EPHEMERIS_TYPE":0,"CLASSIFICATION_TYPE":"U","NORAD_CAT_ID":44632,"ELEMENT_SET_NO":999,"REV_AT_EPOCH":34998,"BSTAR":0.00064044542,"MEAN_MOTION_DOT":0.00011468,"MEAN_MOTION_DDOT":0}]
